[{"OBJECT_NAME":"STARLINK-30494","OBJECT_ID":"2023-151G","EPOCH":"2026-03-09T08:39:06.366240","MEAN_MOTION":15.28417441,"ECCENTRICITY":0.00011553,"INCLINATION":43.0027,"RA_OF_ASC_NODE":192.4566,"ARG_OF_PERICENTER":241.5536,"MEAN_ANOMALY":118.52,"EPHEMERIS_TYPE":0,"CLASSIFICATION_TYPE":"U","NORAD_CAT_ID":57970,"ELEMENT_SET_NO":999,"REV_AT_EPOCH":13740,"BSTAR":-3.569111e-5,"MEAN_MOTION_DOT":-1.272e-5,"MEAN_MOTION_DDOT":0},{"OBJECT_NAME":"STARLINK-31585","OBJECT_ID":"2024-080H","EPOCH":"2026-03-09T06:24:08.620416","MEAN_MOTION":15.27590267,"ECCENTRICITY":0.00037179,"INCLINATION":43.0022,"RA_OF_ASC_NODE":36.3479,"ARG_OF_PERICENTER":254.4766,"MEAN_ANOMALY":105.5675,"EPHEMERIS_TYPE":0,"CLASSIFICATION_TYPE":"U","NORAD_CAT_ID":59608,"ELEMENT_SET_NO":999,"REV_AT_EPOCH":10452,"BSTAR":-0.00027197075,"MEAN_MOTION_DOT":-7.743e-5,"MEAN_MOTION_DDOT":0}]
